#dP2023  2  8 12  0  0.00000000      96 __u+U ITR00 EXT  IAC
## 2248 302400.00000000   900.00000000 59983 0.5000000000000
+  120   C06C07C08C09C10C11C12C13C14C16C19C20C21C22C23C24C25
+        C26C27C28C29C30C32C33C34C35C36C37C38C39C40C41C42C43
+        C44C45C46E01E02E03E04E05E07E08E09E10E11E12E13E14E15
+        E18E19E21E24E25E26E27E30E31E33E34E36G01G02G03G04G05
+        G06G07G08G09G10G11G12G13G14G15G16G17G18G19G20G21G22
+        G23G24G25G26G27G28G29G30G31G32J02J03J04R01R02R03R04
+        R05R07R08R09R11R12R13R14R15R16R17R18R19R20R21R22R24
+        R25  0  0  0  0  0  0  0  0  0  0  0  0  0  0  0  0
++         0  0  0  0  0  0  0  0  0  0  0  0  0  0  0  0  0
++         0  0  0  0  0  0  0  0  0  0  0  0  0  0  0  0  0
++         0  0  0  0  0  0  0  0  0  0  0  0  0  0  0  0  0
++         0  0  0  0  0  0  0  0  0  0  0  0  0  0  0  0  0
++         0  0  0  0  0  0  0  0  0  0  0  0  0  0  0  0  0
++         0  0  0  0  0  0  0  0  0  0  0  0  0  0  0  0  0
++         0  0  0  0  0  0  0  0  0  0  0  0  0  0  0  0  0
++         0  0  0  0  0  0  0  0  0  0  0  0  0  0  0  0  0
%c M  cc GPS ccc cccc cccc cccc cccc ccccc ccccc ccccc ccccc
%c cc cc ccc ccc cccc cccc cccc cccc ccccc ccccc ccccc ccccc
%f  0.0000000  0.000000000  0.00000000000  0.000000000000000
%f  0.0000000  0.000000000  0.00000000000  0.000000000000000
%i    0    0    0    0      0      0      0      0         0
%i    0    0    0    0      0      0      0      0         0
/* IAC                                ULTRA-RAPID PREDICTION
/* S/V CLOCKS ARE ALIGNED TO GNSS TIME                      
/* G:C1WC2W R:C1PC2P E:C1XC5X C:C2IC6I J:C1CC2S             
/* PCV:IGS20_2239 OL/AL:FES2004  NONE     YN ORB:CoN CLK:CoN
*  2023 02 08 14 30  0.00000000
PC06 -13931.517138  23582.806295 -32112.002963   -190.652121
PC07 -13140.890379  39895.823085   2392.985214    143.316597
PC08   2251.202848  31568.923933  27962.912015    526.868586
PC09  -4540.171158  24135.527993 -33920.461062    593.089107
PC10  -7569.072234  40380.572985   8498.332267     15.605852
PC11 -18933.407595  13654.072555  15350.775047   -132.010185
PC12 -27526.736976   4374.943866  -1315.233088    441.460055
PC13   6321.234803  34324.003505  24015.168490    202.946049
PC14 -12915.557923  23594.188726   7349.189475    457.153427
PC16 -15623.246086  22747.531392 -31747.071950    174.425590
PC19   7228.827227 -26887.691799   2051.712182   -894.747313
PC20  15952.697595 -18055.794725 -14087.385689    732.732437
PC21 -15687.750193  -2473.744554  22963.292208   -911.865314
PC22  -6040.237033 -20659.759195  17775.653118   -643.357486
PC23  15304.273454  22746.558641  -5237.597635   -875.943659
PC24 -16570.214178   5153.742714 -21869.346182   -436.484456
PC25    636.974683  20529.231069 -18915.152768     68.694452
PC26 -22480.443275 -10667.530263 -12613.502983    -75.880604
PC27  26209.382001   1444.863853   9430.149006     93.764441
PC28  13597.760894  12214.932263  21091.457072     68.182615
PC29   8055.095541 -16814.556813 -20766.117022     78.376145
PC30  24570.978570 -11062.822546  -7207.960809      1.199011
PC32  15688.409079   2404.635213 -22935.102708   -627.357792
PC33  -7152.603942  26898.658788  -1905.577806   -874.351681
PC34 -23957.404883  11675.800489   8311.621556    101.667676
PC35 -12838.120506 -12382.981077 -21480.975335    683.964832
PC36    506.918101 -20179.276716  19278.147426   -638.847874
PC37  22235.230835  12431.365688  11429.324428   -825.970616
PC38  -5923.193920  27314.817669  31652.323092     57.435433
PC39 -22241.814845  22175.690686 -28202.342369     -1.732133
PC40 -19782.207591  37091.639202     23.303132    -14.586075
PC41   5696.986905  21088.480443 -17309.532119   -588.130176
PC42 -16307.604163  16891.142880  15114.306020   -848.331873
PC43  -8995.219156  16860.365219  20337.846705      6.169770
PC44 -26219.578578   -689.143084  -9593.723491      9.052500
PC45 -15577.220625 -22619.762866   4853.479413    -57.861620
PC46  15371.596542  -6678.581803  22308.456636    -32.020583
PE01   3138.719970  29262.061803  -3243.733947   -600.339684
PE02  -3436.631428 -29251.111877   2814.093607     19.581211
PE03   3427.063330 -21537.216803  20015.709648   -648.008744
PE04  14803.128446   9353.810709 -23858.781610    -53.876381
PE05  20071.254912 -21326.715809   4296.327780    -97.314779
PE07 -24745.328877   8571.089831  13797.766026    -21.392084
PE08 -14614.473430  -9342.261961  23985.016822    -32.771788
PE09  24649.401089  -8532.644225 -13998.986782   -828.923319
PE10  28106.300338   9273.353090   -444.501528   -510.938810
PE11  27476.769807   2088.279539 -10786.905142    802.328730
PE12  24218.195862  14472.393422   8922.257523   -414.635520
PE13 -27737.080599  -2702.838271  10001.873525     -0.131479
PE14  25176.349465  -5480.788030  11387.081819    136.455979
PE15 -24077.777302 -14534.256258  -9236.541725    688.677254
PE18 -20143.724543  -6414.702170 -19574.618451   -414.470156
PE19  -6169.983853  22242.856434 -18528.021680  -3284.802775
PE21  -8844.755289  21408.680621 -18441.231898   -510.987468
PE24  17006.439312    326.106164  24207.654221  -1102.991068
PE25   9037.723992 -21132.418849  18643.994724   -598.952382
PE26 -14377.131285  11168.242865  23349.824943     12.444694
PE27 -16830.129374    772.407151 -24339.988990   -507.395067
PE30 -14549.897526 -20707.600491 -15348.799406  -1226.142678
PE31  14828.313437  20139.025828  15843.761118   -515.493604
PE33   6201.361637  17704.217576  22902.672556   -452.472262
PE34  -6429.629045 -17712.956143 -22826.074064    -29.049041
PE36  15099.861570 -10571.429455 -23149.080003     -9.412838
PG01 -21319.070023 -14563.037070  -7290.216453    214.839639
PG02  23382.907138  11437.327481   5227.603113   -622.197315
PG03 -12406.440531 -18156.745903  14855.651872   -365.431039
PG04 -15016.984257  -7075.085789  20764.658612    -31.856176
PG05   5462.724871  25896.484354  -1394.316225   -115.127439
PG06 -13894.207693   8994.767650  20863.526324    569.933678
PG07 -25335.512259  -6215.577704  -5783.601190    244.723934
PG08  -4384.263255 -15442.150481 -21150.505170   -107.550156
PG09 -21605.648607   3683.160513  14959.908496   -221.968131
PG10  11853.804693 -12687.478573 -19829.727352    -23.850004
PG11    -47.662798  16186.788613  21075.436692    -98.863261
PG12  10456.114085  20237.607967  13462.813950   -337.889886
PG13  -4519.033632  17756.705195 -19332.827424    472.799171
PG14 -13772.702501   9837.070470 -20434.283662    -31.856302
PG15   6867.775533  15241.632162 -21046.172866     11.675533
PG16   -587.097807 -26282.531647    590.506982   -520.947660
PG17 -22935.082401  13139.850390  -2659.903729    698.711490
PG18  24491.973627   3458.512100  -9864.995844   -132.230923
PG19 -18875.789817  16992.739813   7043.888032    274.983545
PG20   -311.331092  24624.013782  10254.261035    451.974497
PG21 -16668.203331 -15475.040480 -13770.711990    153.872521
PG22  15642.329048 -18759.598627  10650.712358    422.884221
PG23  15100.354265     58.405889 -21854.516595      5.316654
PG24  19246.724450  14993.232620 -11340.197450    -65.131276
PG25  14949.724735  11107.082057  18730.435675    418.367749
PG26   6058.422485 -21729.267259  13634.086243    241.301607
PG27   7061.242121 -19612.957540 -16442.016287    107.238787
PG28  15567.872222  -8757.371972  19621.117248      3.613039
PG29  20323.183349    545.124097  17084.846236   -585.001830
PG30 -20620.604039   4166.711296 -16269.726172   -530.961206
PG31  12755.832699 -10414.941674  20756.667609   -208.670506
PG32  21146.957061 -15869.767493   -572.828115   -389.896393
PJ02 -20952.973199  26696.843506 -20413.789960     -0.840417
PJ03 -29604.287816  24461.266367  22434.158447      0.136708
PJ04 -28475.222703  29931.739136  14977.409797     94.301780
PR01 -15196.982764  14081.945821  14877.150077     22.675074
PR02 -11021.745377  22832.968087  -3066.415953    -23.315482
PR03     29.687580  17895.054481 -18158.264531     72.103973
PR04  10553.974515   3035.785249 -22991.550601    174.985241
PR05  15508.953102 -13320.448807 -15223.447368    107.412839
PR07   -669.677782 -17280.629159  18770.508702     49.504122
PR08 -10810.759351  -2839.539596  22990.395987    -69.384079
PR09   -593.408731 -17695.178206  18407.909740    102.979529
PR11 -16480.414729 -15066.992839 -12336.839927     -2.281692
PR12 -11367.240501   2330.217605 -22696.088694     24.864041
PR13   -682.417530  16415.473958 -19536.185099    -31.818681
PR14  11868.863540  22266.086128  -3695.611757     24.320258
PR15  16396.176974  14346.914962  13279.216570     91.200799
PR16  11414.018881  -2011.268542  22721.583236     11.013320
PR17   9449.669347   9651.132301  21657.850381    603.052681
PR18  22824.430796   4430.557626  10445.011808     65.779730
PR19  24956.959403  -1783.721139  -4952.320013   -221.178055
PR20  11053.599433  -9141.207206 -21067.644025    -87.347265
PR21 -11072.518869  -9301.543440 -21003.650178   -371.772614
PR22 -23126.220211  -5045.849614  -9502.301329     70.114733
PR24 -10121.730737  10050.055580  21165.704945    145.326578
PR25  -8590.930101 -10424.585282 -21626.511967     54.531817
EOF
